NORAD_CAT_ID,OBJECT_NAME,OBJECT_TYPE,EPOCH,MEAN_MOTION,ECCENTRICITY,INCLINATION,RA_OF_ASC_NODE,ARG_OF_PERICENTER,MEAN_ANOMALY,BSTAR,MEAN_MOTION_DOT,MEAN_MOTION_DDOT,TLE_LINE0,TLE_LINE1,TLE_LINE2,SEMIMAJOR_AXIS,PERIOD,APOGEE,PERIGEE,DECAYED
53172.0,STARLINK-4299,PAYLOAD,2022-11-17 21:32:54,15.08837207,0.0001942,53.2156,181.0997,59.3982,300.7202,-3.7202e-05,-8.8e-06,0.0,0 STARLINK-4299,1 53172U 22083AS  22321.89785389 -.00000880  00000-0 -37202-4 0  9996,2 53172  53.2156 181.0997 0001942  59.3982 300.7202 15.08837207 19082,6917.889,95.438,541.097,538.41,0.0
53172.0,STARLINK-4299,PAYLOAD,2022-11-18 21:23:41,15.08842439,0.0001929,53.2155,176.6396,56.1475,303.9701,6.335600000000001e-05,7.200000000000001e-06,0.0,0 STARLINK-4299,1 53172U 22083AS  22322.89144715  .00000720  00000-0  63356-4 0  9999,2 53172  53.2155 176.6396 0001929  56.1475 303.9701 15.08842439 19230,6917.873000000001,95.437,541.072,538.403,0.0
53172.0,STARLINK-4299,PAYLOAD,2022-11-19 00:34:27,15.08842472,0.0001945,53.2158,176.0451,57.0002,303.1177,7.809999999999999e-05,9.55e-06,0.0,0 STARLINK-4299,1 53172U 22083AS  22323.02392674  .00000955  00000-0  78100-4 0  9997,2 53172  53.2158 176.0451 0001945  57.0002 303.1177 15.08842472 19891,6917.873000000001,95.437,541.0830000000002,538.3919999999998,0.0
53172.0,STARLINK-4299,PAYLOAD,2022-11-19 06:55:59,15.08840807,0.0001933,53.2155,174.8553,54.717,305.4003,0.00014164,1.967e-05,0.0,0 STARLINK-4299,1 53172U 22083AS  22323.28888743  .00001967  00000-0  14164-3 0  9995,2 53172  53.2155 174.8553 0001933  54.7170 305.4003 15.08840807 19291,6917.878000000002,95.438,541.08,538.406,0.0
53172.0,STARLINK-4299,PAYLOAD,2022-11-19 21:14:27,15.08843973,0.0001957,53.216,172.1791,57.0165,303.1015,0.00015813,2.23e-05,0.0,0 STARLINK-4299,1 53172U 22083AS  22323.88504333  .00002230  00000-0  15813-3 0  9997,2 53172  53.2160 172.1791 0001957  57.0165 303.1015 15.08843973 19383,6917.868,95.437,541.087,538.379,0.0
53172.0,STARLINK-4299,PAYLOAD,2022-11-20 00:25:14,15.08844174,0.0001965,53.216,171.5847,57.6155,302.5027,0.00015694,2.211e-05,0.0,0 STARLINK-4299,1 53172U 22083AS  22324.01752326  .00002211  00000-0  15694-3 0  9996,2 53172  53.2160 171.5847 0001965  57.6155 302.5027 15.08844174 19405,6917.868,95.437,541.092,538.373,0.0
53172.0,STARLINK-4299,PAYLOAD,2022-11-20 17:54:29,15.08840258,0.0001937,53.216,168.31400000000005,59.8175,300.3009,1.4258e-05,-6.1e-07,0.0,0 STARLINK-4299,1 53172U 22083AS  22324.74616969 -.00000061  00000-0  14258-4 0  9996,2 53172  53.2160 168.3140 0001937  59.8175 300.3009 15.08840258 20159,6917.88,95.438,541.085,538.405,0.0
53172.0,STARLINK-4299,PAYLOAD,2022-11-20 21:05:15,15.088345,0.0001906,53.2161,167.7192,60.0267,300.0914,-2.854e-05,-7.42e-06,0.0,0 STARLINK-4299,1 53172U 22083AS  22324.87865343 -.00000742  00000-0 -28540-4 0  9998,2 53172  53.2161 167.7192 0001906  60.0267 300.0914 15.08834500 19537,6917.897,95.438,541.081,538.444,0.0
53172.0,STARLINK-4299,PAYLOAD,2022-11-21 00:16:02,15.08834733,0.0001999,53.2162,167.1248,57.3798,302.7387,-0.00010924,-2.026e-05,0.0,0 STARLINK-4299,1 53172U 22083AS  22325.01113599 -.00002026  00000-0 -10924-3 0  9997,2 53172  53.2162 167.1248 0001999  57.3798 302.7387 15.08834733 20199,6917.896,95.438,541.144,538.379,0.0
53172.0,STARLINK-4299,PAYLOAD,2022-11-21 06:37:35,15.08829871,0.0001941,53.2163,165.9351,58.5854,301.5328,-9.5261e-05,-1.804e-05,0.0,0 STARLINK-4299,1 53172U 22083AS  22325.27610018 -.00001804  00000-0 -95261-4 0  9994,2 53172  53.2163 165.9351 0001941  58.5854 301.5328 15.08829871 19595,6917.911,95.438,541.119,538.434,0.0
53172.0,STARLINK-4299,PAYLOAD,2022-11-21 19:20:40,15.0883304,0.0001891,53.2163,163.5562,58.5193,301.5984,-6.567899999999999e-05,-1.333e-05,0.0,0 STARLINK-4299,1 53172U 22083AS  22325.80601920 -.00001333  00000-0 -65679-4 0  9992,2 53172  53.2163 163.5562 0001891  58.5193 301.5984 15.08833040 19673,6917.901999999999,95.438,541.075,538.4580000000002,0.0
53172.0,STARLINK-4299,PAYLOAD,2022-11-22 06:28:22,15.08831116,0.0001804,53.2156,161.4741,56.3167,303.7997,-1.7455e-05,-5.66e-06,0.0,0 STARLINK-4299,1 53172U 22083AS  22326.26970088 -.00000566  00000-0 -17455-4 0  9993,2 53172  53.2156 161.4741 0001804  56.3167 303.7997 15.08831116 20382,6917.908,95.438,541.021,538.525,0.0
53172.0,STARLINK-4299,PAYLOAD,2022-11-22 20:46:50,15.08813914,0.0001915,53.2169,158.7976,61.3652,298.7533,0.00024024,3.535e-05,0.0,0 STARLINK-4299,1 53172U 22083AS  22326.86586665  .00003535  00000-0  24024-3 0  9999,2 53172  53.2169 158.7976 0001915  61.3652 298.7533 15.08813914 19836,6917.96,95.439,541.15,538.5,0.0
53172.0,STARLINK-4299,PAYLOAD,2022-11-23 12:40:42,15.08828491,0.0001934,53.2171,155.8239,58.7901,301.3281,0.00010039,1.309e-05,0.0,0 STARLINK-4299,1 53172U 22083AS  22327.52826872  .00001309  00000-0  10039-3 0  9998,2 53172  53.2171 155.8239 0001934  58.7901 301.3281 15.08828491 20577,6917.916,95.438,541.118,538.443,0.0
53172.0,STARLINK-4299,PAYLOAD,2022-11-23 19:02:14,15.088312,0.0001946,53.2172,154.6347,58.7117,301.4065,9.869e-05,1.282e-05,0.0,0 STARLINK-4299,1 53172U 22083AS  22327.79322875  .00001282  00000-0  98690-4 0  9991,2 53172  53.2172 154.6347 0001946  58.7117 301.4065 15.08831200 19972,6917.906999999997,95.438,541.119,538.4259999999998,0.0
53172.0,STARLINK-4299,PAYLOAD,2022-11-24 06:09:56,15.08835511,0.000196,53.2174,152.5533,59.1057,301.0127,9.5209e-05,1.227e-05,0.0,0 STARLINK-4299,1 53172U 22083AS  22328.25690847  .00001227  00000-0  95209-4 0  9992,2 53172  53.2174 152.5533 0001960  59.1057 301.0127 15.08835511 20046,6917.894,95.438,541.115,538.403,0.0
53172.0,STARLINK-4299,PAYLOAD,2022-11-24 18:53:01,15.08839053,0.0001974,53.2179,150.1747,59.4037,300.715,0.00010311,1.353e-05,0.0,0 STARLINK-4299,1 53172U 22083AS  22328.78682758  .00001353  00000-0  10311-3 0  9992,2 53172  53.2179 150.1747 0001974  59.4037 300.7150 15.08839053 20764,6917.8830000000025,95.438,541.114,538.383,0.0
53172.0,STARLINK-4299,PAYLOAD,2022-11-25 12:22:16,15.08843758,0.0001985,53.218,146.9038,59.9107,300.2081,8.271799999999999e-05,1.029e-05,0.0,0 STARLINK-4299,1 53172U 22083AS  22329.51546534  .00001029  00000-0  82718-4 0  9996,2 53172  53.2180 146.9038 0001985  59.9107 300.2081 15.08843758 20234,6917.869000000002,95.437,541.107,538.361,0.0
53172.0,STARLINK-4299,PAYLOAD,2022-11-25 18:43:48,15.08846541,0.0001992,53.218,145.7143,60.854,299.2652,0.00010042,1.311e-05,0.0,0 STARLINK-4299,1 53172U 22083AS  22329.78042239  .00001311  00000-0  10042-3 0  9992,2 53172  53.2180 145.7143 0001992  60.8540 299.2652 15.08846541 20276,6917.86,95.437,541.1030000000002,538.347,0.0
53172.0,STARLINK-4299,PAYLOAD,2022-11-26 04:16:07,15.08848429,0.0002022,53.2181,143.9301,61.4094,298.7102,0.00010862,1.441e-05,0.0,0 STARLINK-4299,1 53172U 22083AS  22330.17785922  .00001441  00000-0  10862-3 0  9994,2 53172  53.2181 143.9301 0002022  61.4094 298.7102 15.08848429 20977,6917.855,95.437,541.118,538.321,0.0
53172.0,STARLINK-4299,PAYLOAD,2022-11-26 18:34:35,15.08841113,0.0001938,53.2186,141.2525,61.464,298.6547,5.1667e-05,5.34e-06,0.0,0 STARLINK-4299,1 53172U 22083AS  22330.77402299  .00000534  00000-0  51667-4 0  9994,2 53172  53.2186 141.2525 0001938  61.4640 298.6547 15.08841113 21069,6917.877,95.437,541.0830000000002,538.401,0.0
53172.0,STARLINK-4299,PAYLOAD,2022-11-27 07:17:44,15.08801885,0.0002036,53.2187,138.8759,56.4739,303.6448,-0.00034166,-5.716e-05,0.0,0 STARLINK-4299,1 53172U 22083AS  22331.30398656 -.00005716  00000-0 -34166-3 0  9998,2 53172  53.2187 138.8759 0002036  56.4739 303.6448 15.08801885 21142,6917.996999999999,95.44,541.27,538.453,0.0
53172.0,STARLINK-4299,PAYLOAD,2022-11-27 12:03:51,15.08839632,0.0002038,53.218,137.9825,81.1879,278.9344,-2.6556e-05,-7.11e-06,0.0,0 STARLINK-4299,1 53172U 22083AS  22331.50267433 -.00000711  00000-0 -26556-4 0  9993,2 53172  53.2180 137.9825 0002038  81.1879 278.9344 15.08839632 20533,6917.882,95.438,541.156,538.337,0.0
53172.0,STARLINK-4299,PAYLOAD,2022-11-27 18:25:24,15.08833702,0.0001925,53.2184,136.7936,56.3816,303.736,-6.251e-05,-1.283e-05,0.0,0 STARLINK-4299,1 53172U 22083AS  22331.76764150 -.00001283  00000-0 -62510-4 0  9994,2 53172  53.2184 136.7936 0001925  56.3816 303.7360 15.08833702 21219,6917.9,95.438,541.096,538.433,0.0
53172.0,STARLINK-4299,PAYLOAD,2022-11-27 20:00:47,15.08835739,0.0001998,53.2178,136.4956,56.7724,303.346,-5.0002e-05,-1.084e-05,0.0,0 STARLINK-4299,1 53172U 22083AS  22331.83388033 -.00001084  00000-0 -50002-4 0  9996,2 53172  53.2178 136.4956 0001998  56.7724 303.3460 15.08835739 20581,6917.893,95.438,541.141,538.376,0.0
53172.0,STARLINK-4299,PAYLOAD,2022-11-28 11:54:38,15.08835672,0.0002063,53.2178,133.52200000000002,53.8305,306.2878,2.8546e-05,1.66e-06,0.0,0 STARLINK-4299,1 53172U 22083AS  22332.49628053  .00000166  00000-0  28546-4 0  9994,2 53172  53.2178 133.5220 0002063  53.8305 306.2878 15.08835672 20682,6917.894,95.438,541.186,538.331,0.0
53172.0,STARLINK-4299,PAYLOAD,2022-11-28 18:16:11,15.08834918,0.0002045,53.218,132.3326,56.8288,303.29,8.9051e-05,1.129e-05,0.0,0 STARLINK-4299,1 53172U 22083AS  22332.76123980  .00001129  00000-0  89051-4 0  9991,2 53172  53.2180 132.3326 0002045  56.8288 303.2900 15.08834918 21363,6917.896,95.438,541.1759999999998,538.346,0.0
53172.0,STARLINK-4299,PAYLOAD,2022-11-29 11:45:25,15.08841899,0.0002074,53.2179,129.0616,55.4285,304.6902,0.00012807,1.751e-05,0.0,0 STARLINK-4299,1 53172U 22083AS  22333.48988054  .00001751  00000-0  12807-3 0  9997,2 53172  53.2179 129.0616 0002074  55.4285 304.6902 15.08841899 20834,6917.875,95.437,541.174,538.305,0.0
53172.0,STARLINK-4299,PAYLOAD,2022-11-29 18:06:57,15.08845683,0.00021,53.2182,127.8723,56.3246,303.7946,0.00015374,2.1600000000000007e-05,0.0,0 STARLINK-4299,1 53172U 22083AS  22333.75483780  .00002160  00000-0  15374-3 0  9990,2 53172  53.2182 127.8723 0002100  56.3246 303.7946 15.08845683 21519,6917.863,95.437,541.181,538.275,0.0
